{
  "type": "FeatureCollection",
  "features": [
    {
      "type": "Feature",
      "properties": {
        "norad_id": 66917,
        "name": "HULIANWANG DIGUI 14C",
        "group": "last-30-days",
        "lat": 29.313186516726837,
        "lon": 167.8770456978934,
        "alt_km": 871.9188201716743,
        "timestamp": "2025-12-07T05:38:08.686285+00:00",
        "meta_object_name": "HULIANWANG DIGUI 14C",
        "meta_object_id": "2025-285C",
        "meta_epoch": "2025-12-07T02:02:13.148160",
        "meta_mean_motion": 14.06462141,
        "meta_eccentricity": 0.0009369,
        "meta_inclination": 50.0016,
        "meta_ra_of_asc_node": 140.3652,
        "meta_arg_of_pericenter": 270.2146,
        "meta_mean_anomaly": 89.7686,
        "meta_ephemeris_type": 0,
        "meta_classification_type": "U",
        "meta_norad_cat_id": 66917,
        "meta_element_set_no": 999,
        "meta_rev_at_epoch": 11,
        "meta_bstar": -1.2884e-05,
        "meta_mean_motion_dot": -1.74e-06,
        "meta_mean_motion_ddot": 0,
        "tle_line1": "1 66917U 25285C   25341.08487440 -.00000174  00000+0 -12884-4 0  9991",
        "tle_line2": "2 66917  50.0016 140.3652 0009369 270.2146  89.7686 14.06462141   118"
      },
      "geometry": {
        "type": "Point",
        "coordinates": [
          167.8770456978934,
          29.313186516726837
        ]
      }
    },
    {
      "type": "Feature",
      "properties": {
        "norad_id": 66918,
        "name": "HULIANWANG DIGUI 14D",
        "group": "last-30-days",
        "lat": 29.3869838685455,
        "lon": 167.96325667593615,
        "alt_km": 871.8542658025272,
        "timestamp": "2025-12-07T05:38:08.686295+00:00",
        "meta_object_name": "HULIANWANG DIGUI 14D",
        "meta_object_id": "2025-285D",
        "meta_epoch": "2025-12-07T02:02:08.599200",
        "meta_mean_motion": 14.06161406,
        "meta_eccentricity": 0.0006252,
        "meta_inclination": 50.004,
        "meta_ra_of_asc_node": 140.3614,
        "meta_arg_of_pericenter": 264.6291,
        "meta_mean_anomaly": 95.3901,
        "meta_ephemeris_type": 0,
        "meta_classification_type": "U",
        "meta_norad_cat_id": 66918,
        "meta_element_set_no": 999,
        "meta_rev_at_epoch": 11,
        "meta_bstar": 6.6281e-06,
        "meta_mean_motion_dot": -1.41e-06,
        "meta_mean_motion_ddot": 0,
        "tle_line1": "1 66918U 25285D   25341.08482175 -.00000141  00000+0  66281-5 0  9996",
        "tle_line2": "2 66918  50.0040 140.3614 0006252 264.6291  95.3901 14.06161406   113"
      },
      "geometry": {
        "type": "Point",
        "coordinates": [
          167.96325667593615,
          29.3869838685455
        ]
      }
    },
    {
      "type": "Feature",
      "properties": {
        "norad_id": 66919,
        "name": "HULIANWANG DIGUI 14E",
        "group": "last-30-days",
        "lat": 29.519571877082377,
        "lon": 168.12766346618048,
        "alt_km": 871.9420845511049,
        "timestamp": "2025-12-07T05:38:08.686304+00:00",
        "meta_object_name": "HULIANWANG DIGUI 14E",
        "meta_object_id": "2025-285E",
        "meta_epoch": "2025-12-06T22:37:25.773888",
        "meta_mean_motion": 14.06218665,
        "meta_eccentricity": 0.0008024,
        "meta_inclination": 50.0062,
        "meta_ra_of_asc_node": 140.943,
        "meta_arg_of_pericenter": 272.1342,
        "meta_mean_anomaly": 87.8645,
        "meta_ephemeris_type": 0,
        "meta_classification_type": "U",
        "meta_norad_cat_id": 66919,
        "meta_element_set_no": 999,
        "meta_rev_at_epoch": 9,
        "meta_bstar": 8.1603e-06,
        "meta_mean_motion_dot": -1.39e-06,
        "meta_mean_motion_ddot": 0,
        "tle_line1": "1 66919U 25285E   25340.94265942 -.00000139  00000+0  81603-5 0  9994",
        "tle_line2": "2 66919  50.0062 140.9430 0008024 272.1342  87.8645 14.06218665    98"
      },
      "geometry": {
        "type": "Point",
        "coordinates": [
          168.12766346618048,
          29.519571877082377
        ]
      }
    },
    {
      "type": "Feature",
      "properties": {
        "norad_id": 66920,
        "name": "HULIANWANG DIGUI 14F",
        "group": "last-30-days",
        "lat": 29.734353535867733,
        "lon": 168.39774072462325,
        "alt_km": 870.7245644861359,
        "timestamp": "2025-12-07T05:38:08.686313+00:00",
        "meta_object_name": "HULIANWANG DIGUI 14F",
        "meta_object_id": "2025-285F",
        "meta_epoch": "2025-12-07T00:19:41.621952",
        "meta_mean_motion": 14.06302954,
        "meta_eccentricity": 0.000574,
        "meta_inclination": 50.0098,
        "meta_ra_of_asc_node": 140.6551,
        "meta_arg_of_pericenter": 270.9351,
        "meta_mean_anomaly": 89.0897,
        "meta_ephemeris_type": 0,
        "meta_classification_type": "U",
        "meta_norad_cat_id": 66920,
        "meta_element_set_no": 999,
        "meta_rev_at_epoch": 10,
        "meta_bstar": 6.917e-06,
        "meta_mean_motion_dot": -1.41e-06,
        "meta_mean_motion_ddot": 0,
        "tle_line1": "1 66920U 25285F   25341.01367618 -.00000141  00000+0  69170-5 0  9996",
        "tle_line2": "2 66920  50.0098 140.6551 0005740 270.9351  89.0897 14.06302954   108"
      },
      "geometry": {
        "type": "Point",
        "coordinates": [
          168.39774072462325,
          29.734353535867733
        ]
      }
    },
    {
      "type": "Feature",
      "properties": {
        "norad_id": 66921,
        "name": "HULIANWANG DIGUI 14G",
        "group": "last-30-days",
        "lat": 29.81347522477563,
        "lon": 168.49955460506428,
        "alt_km": 870.4279732912255,
        "timestamp": "2025-12-07T05:38:08.686344+00:00",
        "meta_object_name": "HULIANWANG DIGUI 14G",
        "meta_object_id": "2025-285G",
        "meta_epoch": "2025-12-07T02:01:59.700000",
        "meta_mean_motion": 14.06336351,
        "meta_eccentricity": 0.0006817,
        "meta_inclination": 50.0112,
        "meta_ra_of_asc_node": 140.3674,
        "meta_arg_of_pericenter": 280.5017,
        "meta_mean_anomaly": 79.512,
        "meta_ephemeris_type": 0,
        "meta_classification_type": "U",
        "meta_norad_cat_id": 66921,
        "meta_element_set_no": 999,
        "meta_rev_at_epoch": 11,
        "meta_bstar": 5.7305e-06,
        "meta_mean_motion_dot": -1.43e-06,
        "meta_mean_motion_ddot": 0,
        "tle_line1": "1 66921U 25285G   25341.08471875 -.00000143  00000+0  57305-5 0  9994",
        "tle_line2": "2 66921  50.0112 140.3674 0006817 280.5017  79.5120 14.06336351   113"
      },
      "geometry": {
        "type": "Point",
        "coordinates": [
          168.49955460506428,
          29.81347522477563
        ]
      }
    },
    {
      "type": "Feature",
      "properties": {
        "norad_id": 66922,
        "name": "HULIANWANG DIGUI 14H",
        "group": "last-30-days",
        "lat": 30.039223649095653,
        "lon": 168.78958944793615,
        "alt_km": 869.4436665734529,
        "timestamp": "2025-12-07T05:38:08.686354+00:00",
        "meta_object_name": "HULIANWANG DIGUI 14H",
        "meta_object_id": "2025-285H",
        "meta_epoch": "2025-12-07T02:01:55.081056",
        "meta_mean_motion": 14.06449683,
        "meta_eccentricity": 0.0006793,
        "meta_inclination": 50.0072,
        "meta_ra_of_asc_node": 140.3652,
        "meta_arg_of_pericenter": 287.9552,
        "meta_mean_anomaly": 72.0613,
        "meta_ephemeris_type": 0,
        "meta_classification_type": "U",
        "meta_norad_cat_id": 66922,
        "meta_element_set_no": 999,
        "meta_rev_at_epoch": 11,
        "meta_bstar": 7.7769e-05,
        "meta_mean_motion_dot": -2.3e-07,
        "meta_mean_motion_ddot": 0,
        "tle_line1": "1 66922U 25285H   25341.08466529 -.00000023  00000+0  77769-4 0  9997",
        "tle_line2": "2 66922  50.0072 140.3652 0006793 287.9552  72.0613 14.06449683   111"
      },
      "geometry": {
        "type": "Point",
        "coordinates": [
          168.78958944793615,
          30.039223649095653
        ]
      }
    },
    {
      "type": "Feature",
      "properties": {
        "norad_id": 66923,
        "name": "HULIANWANG DIGUI 14J",
        "group": "last-30-days",
        "lat": 30.17756419612186,
        "lon": 168.96611103373763,
        "alt_km": 869.0695489393647,
        "timestamp": "2025-12-07T05:38:08.686364+00:00",
        "meta_object_name": "HULIANWANG DIGUI 14J",
        "meta_object_id": "2025-285J",
        "meta_epoch": "2025-12-07T02:01:52.113216",
        "meta_mean_motion": 14.06514086,
        "meta_eccentricity": 0.0005276,
        "meta_inclination": 50.0081,
        "meta_ra_of_asc_node": 140.3653,
        "meta_arg_of_pericenter": 283.4232,
        "meta_mean_anomaly": 76.6085,
        "meta_ephemeris_type": 0,
        "meta_classification_type": "U",
        "meta_norad_cat_id": 66923,
        "meta_element_set_no": 999,
        "meta_rev_at_epoch": 11,
        "meta_bstar": 4.81e-06,
        "meta_mean_motion_dot": -1.44e-06,
        "meta_mean_motion_ddot": 0,
        "tle_line1": "1 66923U 25285J   25341.08463094 -.00000144  00000+0  48100-5 0  9994",
        "tle_line2": "2 66923  50.0081 140.3653 0005276 283.4232  76.6085 14.06514086   117"
      },
      "geometry": {
        "type": "Point",
        "coordinates": [
          168.96611103373763,
          30.17756419612186
        ]
      }
    }
  ]
}